[{"OBJECT_NAME":"ONEWEB-0440","OBJECT_ID":"2021-132AL","EPOCH":"2026-04-27T03:08:08.524608","MEAN_MOTION":13.18580715,"ECCENTRICITY":0.0002146,"INCLINATION":87.9206,"RA_OF_ASC_NODE":345.6076,"ARG_OF_PERICENTER":83.9294,"MEAN_ANOMALY":276.2083,"EPHEMERIS_TYPE":0,"CLASSIFICATION_TYPE":"U","NORAD_CAT_ID":50503,"ELEMENT_SET_NO":999,"REV_AT_EPOCH":21484,"BSTAR":0.00034502000000000003,"MEAN_MOTION_DOT":1.49e-06,"MEAN_MOTION_DDOT":0.0},{"OBJECT_NAME":"ONEWEB-0450","OBJECT_ID":"2021-132AM","EPOCH":"2026-04-27T02:58:42.868128","MEAN_MOTION":13.1859843,"ECCENTRICITY":0.000189,"INCLINATION":87.9195,"RA_OF_ASC_NODE":345.6195,"ARG_OF_PERICENTER":81.4725,"MEAN_ANOMALY":278.6621,"EPHEMERIS_TYPE":0,"CLASSIFICATION_TYPE":"U","NORAD_CAT_ID":50504,"ELEMENT_SET_NO":999,"REV_AT_EPOCH":21487,"BSTAR":-0.00016539999999999998,"MEAN_MOTION_DOT":-5.2e-07,"MEAN_MOTION_DDOT":0.0},{"OBJECT_NAME":"ONEWEB-0410","OBJECT_ID":"2022-012A","EPOCH":"2026-04-27T06:20:19.300128","MEAN_MOTION":13.17648414,"ECCENTRICITY":0.0001843,"INCLINATION":87.9195,"RA_OF_ASC_NODE":15.9707,"ARG_OF_PERICENTER":123.8305,"MEAN_ANOMALY":236.3002,"EPHEMERIS_TYPE":0,"CLASSIFICATION_TYPE":"U","NORAD_CAT_ID":51622,"ELEMENT_SET_NO":999,"REV_AT_EPOCH":20699,"BSTAR":0.00010777,"MEAN_MOTION_DOT":5.5e-07,"MEAN_MOTION_DDOT":0.0},{"OBJECT_NAME":"ONEWEB-0411","OBJECT_ID":"2022-012B","EPOCH":"2026-04-27T05:38:47.119776","MEAN_MOTION":13.10376302,"ECCENTRICITY":0.000178,"INCLINATION":87.886,"RA_OF_ASC_NODE":46.4014,"ARG_OF_PERICENTER":60.8903,"MEAN_ANOMALY":299.2403,"EPHEMERIS_TYPE":0,"CLASSIFICATION_TYPE":"U","NORAD_CAT_ID":51623,"ELEMENT_SET_NO":999,"REV_AT_EPOCH":20261,"BSTAR":0.00067004,"MEAN_MOTION_DOT":2.47e-06,"MEAN_MOTION_DDOT":0.0},{"OBJECT_NAME":"ONEWEB-0415","OBJECT_ID":"2022-012C","EPOCH":"2026-04-27T05:33:59.658336","MEAN_MOTION":13.10375891,"ECCENTRICITY":0.0001734,"INCLINATION":87.8854,"RA_OF_ASC_NODE":46.4041,"ARG_OF_PERICENTER":71.6666,"MEAN_ANOMALY":288.465,"EPHEMERIS_TYPE":0,"CLASSIFICATION_TYPE":"U","NORAD_CAT_ID":51624,"ELEMENT_SET_NO":999,"REV_AT_EPOCH":20261,"BSTAR":7.3052e-05,"MEAN_MOTION_DOT":3.8e-07,"MEAN_MOTION_DDOT":0.0},{"OBJECT_NAME":"ONEWEB-0416","OBJECT_ID":"2022-012D","EPOCH":"2026-04-27T05:50:44.626848","MEAN_MOTION":13.10375139,"ECCENTRICITY":0.0001477,"INCLINATION":87.8849,"RA_OF_ASC_NODE":46.421,"ARG_OF_PERICENTER":73.1543,"MEAN_ANOMALY":286.9746,"EPHEMERIS_TYPE":0,"CLASSIFICATION_TYPE":"U","NORAD_CAT_ID":51625,"ELEMENT_SET_NO":999,"REV_AT_EPOCH":20265,"BSTAR":0.0016271,"MEAN_MOTION_DOT":5.81e-06,"MEAN_MOTION_DDOT":0.0},{"OBJECT_NAME":"ONEWEB-0422","OBJECT_ID":"2022-012E","EPOCH":"2026-04-27T06:34:54.208992","MEAN_MOTION":13.17650222,"ECCENTRICITY":0.0002392,"INCLINATION":87.9192,"RA_OF_ASC_NODE":15.9709,"ARG_OF_PERICENTER":72.0307,"MEAN_ANOMALY":288.1086,"EPHEMERIS_TYPE":0,"CLASSIFICATION_TYPE":"U","NORAD_CAT_ID":51626,"ELEMENT_SET_NO":999,"REV_AT_EPOCH":20710,"BSTAR":5.8095e-05,"MEAN_MOTION_DOT":3.5e-07,"MEAN_MOTION_DDOT":0.0},{"OBJECT_NAME":"ONEWEB-0423","OBJECT_ID":"2022-012F","EPOCH":"2026-04-27T06:25:10.616736","MEAN_MOTION":13.17648464,"ECCENTRICITY":0.0001936,"INCLINATION":87.9185,"RA_OF_ASC_NODE":15.9807,"ARG_OF_PERICENTER":80.5324,"MEAN_ANOMALY":279.6027,"EPHEMERIS_TYPE":0,"CLASSIFICATION_TYPE":"U","NORAD_CAT_ID":51627,"ELEMENT_SET_NO":999,"REV_AT_EPOCH":20699,"BSTAR":8.6654e-05,"MEAN_MOTION_DOT":4.7e-07,"MEAN_MOTION_DDOT":0.0},{"OBJECT_NAME":"ONEWEB-0425","OBJECT_ID":"2022-012G","EPOCH":"2026-04-27T06:05:05.406720","MEAN_MOTION":13.10371545,"ECCENTRICITY":0.000188,"INCLINATION":87.8859,"RA_OF_ASC_NODE":46.4006,"ARG_OF_PERICENTER":89.6498,"MEAN_ANOMALY":270.4845,"EPHEMERIS_TYPE":0,"CLASSIFICATION_TYPE":"U","NORAD_CAT_ID":51628,"ELEMENT_SET_NO":999,"REV_AT_EPOCH":20265,"BSTAR":0.0020089,"MEAN_MOTION_DOT":7.14e-06,"MEAN_MOTION_DDOT":0.0},{"OBJECT_NAME":"ONEWEB-0428","OBJECT_ID":"2022-012H","EPOCH":"2026-04-27T05:36:23.572224","MEAN_MOTION":13.10376006,"ECCENTRICITY":0.0001964,"INCLINATION":87.8853,"RA_OF_ASC_NODE":46.4132,"ARG_OF_PERICENTER":78.2354,"MEAN_ANOMALY":281.8993,"EPHEMERIS_TYPE":0,"CLASSIFICATION_TYPE":"U","NORAD_CAT_ID":51629,"ELEMENT_SET_NO":999,"REV_AT_EPOCH":20261,"BSTAR":0.00045351,"MEAN_MOTION_DOT":1.71e-06,"MEAN_MOTION_DDOT":0.0},{"OBJECT_NAME":"ONEWEB-0431","OBJECT_ID":"2022-012J","EPOCH":"2026-04-27T06:43:06.579264","MEAN_MOTION":13.10370469,"ECCENTRICITY":0.0001887,"INCLINATION":87.8857,"RA_OF_ASC_NODE":46.3944,"ARG_OF_PERICENTER":59.8309,"MEAN_ANOMALY":300.3005,"EPHEMERIS_TYPE":0,"CLASSIFICATION_TYPE":"U","NORAD_CAT_ID":51630,"ELEMENT_SET_NO":999,"REV_AT_EPOCH":20267,"BSTAR":-0.0012128,"MEAN_MOTION_DOT":-4.11e-06,"MEAN_MOTION_DDOT":0.0},{"OBJECT_NAME":"ONEWEB-0434","OBJECT_ID":"2022-012K","EPOCH":"2026-04-27T06:10:03.783072","MEAN_MOTION":13.1037094,"ECCENTRICITY":0.0001979,"INCLINATION":87.8852,"RA_OF_ASC_NODE":46.4237,"ARG_OF_PERICENTER":98.5841,"MEAN_ANOMALY":261.551,"EPHEMERIS_TYPE":0,"CLASSIFICATION_TYPE":"U","NORAD_CAT_ID":51631,"ELEMENT_SET_NO":999,"REV_AT_EPOCH":20265,"BSTAR":0.0018801000000000002,"MEAN_MOTION_DOT":6.69e-06,"MEAN_MOTION_DDOT":0.0},{"OBJECT_NAME":"ONEWEB-0435","OBJECT_ID":"2022-012L","EPOCH":"2026-04-27T06:21:48.211776","MEAN_MOTION":13.10369329,"ECCENTRICITY":0.0002057,"INCLINATION":87.8845,"RA_OF_ASC_NODE":46.4112,"ARG_OF_PERICENTER":74.5121,"MEAN_ANOMALY":285.6233,"EPHEMERIS_TYPE":0,"CLASSIFICATION_TYPE":"U","NORAD_CAT_ID":51632,"ELEMENT_SET_NO":999,"REV_AT_EPOCH":20264,"BSTAR":0.0011467,"MEAN_MOTION_DOT":4.13e-06,"MEAN_MOTION_DDOT":0.0},{"OBJECT_NAME":"ONEWEB-0436","OBJECT_ID":"2022-012M","EPOCH":"2026-04-27T06:13:00.723360","MEAN_MOTION":13.17651537,"ECCENTRICITY":0.0001933,"INCLINATION":87.9191,"RA_OF_ASC_NODE":15.9616,"ARG_OF_PERICENTER":74.6186,"MEAN_ANOMALY":285.5159,"EPHEMERIS_TYPE":0,"CLASSIFICATION_TYPE":"U","NORAD_CAT_ID":51633,"ELEMENT_SET_NO":999,"REV_AT_EPOCH":20697,"BSTAR":0.000161,"MEAN_MOTION_DOT":7.5e-07,"MEAN_MOTION_DDOT":0.0},{"OBJECT_NAME":"ONEWEB-0438","OBJECT_ID":"2022-012N","EPOCH":"2026-04-27T04:07:57.743904","MEAN_MOTION":13.10372752,"ECCENTRICITY":0.0001826,"INCLINATION":87.8851,"RA_OF_ASC_NODE":46.4318,"ARG_OF_PERICENTER":84.1414,"MEAN_ANOMALY":275.9921,"EPHEMERIS_TYPE":0,"CLASSIFICATION_TYPE":"U","NORAD_CAT_ID":51634,"ELEMENT_SET_NO":999,"REV_AT_EPOCH":20266,"BSTAR":0.0018165999999999998,"MEAN_MOTION_DOT":6.47e-06,"MEAN_MOTION_DDOT":0.0},{"OBJECT_NAME":"ONEWEB-0439","OBJECT_ID":"2022-012P","EPOCH":"2026-04-27T06:02:42.195264","MEAN_MOTION":13.10372548,"ECCENTRICITY":0.0002,"INCLINATION":87.8845,"RA_OF_ASC_NODE":46.404,"ARG_OF_PERICENTER":80.7458,"MEAN_ANOMALY":279.3895,"EPHEMERIS_TYPE":0,"CLASSIFICATION_TYPE":"U","NORAD_CAT_ID":51635,"ELEMENT_SET_NO":999,"REV_AT_EPOCH":20265,"BSTAR":0.0019722999999999997,"MEAN_MOTION_DOT":7.01e-06,"MEAN_MOTION_DDOT":0.0}]