ONEWEB-0440             
1 50503U 21132AL  26117.13065422  .00000149  00000+0  34502-3 0  9992
2 50503  87.9206 345.6076 0002146  83.9294 276.2083 13.18580715214842
ONEWEB-0450             
1 50504U 21132AM  26117.12410727 -.00000052  00000+0 -16540-3 0  9991
2 50504  87.9195 345.6195 0001890  81.4725 278.6621 13.18598430214879
ONEWEB-0410             
1 51622U 22012A   26117.26411227  .00000055  00000+0  10777-3 0  9999
2 51622  87.9195  15.9707 0001843 123.8305 236.3002 13.17648414206995
ONEWEB-0411             
1 51623U 22012B   26117.23526759  .00000247  00000+0  67004-3 0  9992
2 51623  87.8860  46.4014 0001780  60.8903 299.2403 13.10376302202613
ONEWEB-0415             
1 51624U 22012C   26117.23194049  .00000038  00000+0  73052-4 0  9995
2 51624  87.8854  46.4041 0001734  71.6666 288.4650 13.10375891202618
ONEWEB-0416             
1 51625U 22012D   26117.24357207  .00000581  00000+0  16271-2 0  9995
2 51625  87.8849  46.4210 0001477  73.1543 286.9746 13.10375139202654
ONEWEB-0422             
1 51626U 22012E   26117.27423853  .00000035  00000+0  58095-4 0  9996
2 51626  87.9192  15.9709 0002392  72.0307 288.1086 13.17650222207106
ONEWEB-0423             
1 51627U 22012F   26117.26748399  .00000047  00000+0  86654-4 0  9996
2 51627  87.9185  15.9807 0001936  80.5324 279.6027 13.17648464206995
ONEWEB-0425             
1 51628U 22012G   26117.25353480  .00000714  00000+0  20089-2 0  9998
2 51628  87.8859  46.4006 0001880  89.6498 270.4845 13.10371545202655
ONEWEB-0428             
1 51629U 22012H   26117.23360616  .00000171  00000+0  45351-3 0  9993
2 51629  87.8853  46.4132 0001964  78.2354 281.8993 13.10376006202611
ONEWEB-0431             
1 51630U 22012J   26117.27993726 -.00000411  00000+0 -12128-2 0  9997
2 51630  87.8857  46.3944 0001887  59.8309 300.3005 13.10370469202670
ONEWEB-0434             
1 51631U 22012K   26117.25698823  .00000669  00000+0  18801-2 0  9993
2 51631  87.8852  46.4237 0001979  98.5841 261.5510 13.10370940202656
ONEWEB-0435             
1 51632U 22012L   26117.26514134  .00000413  00000+0  11467-2 0  9995
2 51632  87.8845  46.4112 0002057  74.5121 285.6233 13.10369329202641
ONEWEB-0436             
1 51633U 22012M   26117.25903615  .00000075  00000+0  16100-3 0  9995
2 51633  87.9191  15.9616 0001933  74.6186 285.5159 13.17651537206979
ONEWEB-0438             
1 51634U 22012N   26117.17219611  .00000647  00000+0  18166-2 0  9991
2 51634  87.8851  46.4318 0001826  84.1414 275.9921 13.10372752202665
ONEWEB-0439             
1 51635U 22012P   26117.25187726  .00000701  00000+0  19723-2 0  9993
2 51635  87.8845  46.4040 0002000  80.7458 279.3895 13.10372548202656
